OBJECT C                
1 57582U 23117C   25029.11711310  .00014385  00000+0  62190-3 0  9995
2 57582  97.4615 104.7931 0008580 219.7512 140.3096 15.22538752 81488
